CCSDS_OMM_VERS = 2.0
CREATION_DATE  = 
ORIGINATOR     = 

OBJECT_NAME    = STARLINK-36517
OBJECT_ID      = 2026-008K
CENTER_NAME    = EARTH
REF_FRAME      = TEME
TIME_SYSTEM    = UTC
MEAN_ELEMENT_THEORY = SGP/SGP4

EPOCH          = 2026-02-07T14:00:01.999872
MEAN_MOTION    = 15.50600275
ECCENTRICITY   = .00012544
INCLINATION    = 43.0005
RA_OF_ASC_NODE = 17.0346
ARG_OF_PERICENTER = 272.2966
MEAN_ANOMALY   = 223.2123

EPHEMERIS_TYPE = 0
CLASSIFICATION_TYPE = U
NORAD_CAT_ID   = 67454
ELEMENT_SET_NO = 999
REV_AT_EPOCH   = 497
BSTAR          = -.16520917E-2
MEAN_MOTION_DOT = -.96152E-3
MEAN_MOTION_DDOT = 0

CCSDS_OMM_VERS = 2.0
CREATION_DATE  = 
ORIGINATOR     = 

OBJECT_NAME    = STARLINK-36516
OBJECT_ID      = 2026-008L
CENTER_NAME    = EARTH
REF_FRAME      = TEME
TIME_SYSTEM    = UTC
MEAN_ELEMENT_THEORY = SGP/SGP4

EPOCH          = 2026-02-07T14:00:01.999872
MEAN_MOTION    = 15.50660164
ECCENTRICITY   = .00013384
INCLINATION    = 43.0002
RA_OF_ASC_NODE = 16.8966
ARG_OF_PERICENTER = 265.7887
MEAN_ANOMALY   = 285.5687

EPHEMERIS_TYPE = 0
CLASSIFICATION_TYPE = U
NORAD_CAT_ID   = 67455
ELEMENT_SET_NO = 999
REV_AT_EPOCH   = 495
BSTAR          = -.28522752E-2
MEAN_MOTION_DOT = -.164674E-2
MEAN_MOTION_DDOT = 0

CCSDS_OMM_VERS = 2.0
CREATION_DATE  = 
ORIGINATOR     = 

OBJECT_NAME    = STARLINK-36493
OBJECT_ID      = 2026-008M
CENTER_NAME    = EARTH
REF_FRAME      = TEME
TIME_SYSTEM    = UTC
MEAN_ELEMENT_THEORY = SGP/SGP4

EPOCH          = 2026-02-07T14:00:01.999872
MEAN_MOTION    = 15.50640794
ECCENTRICITY   = .00011845
INCLINATION    = 43.0005
RA_OF_ASC_NODE = 16.8642
ARG_OF_PERICENTER = 262.8646
MEAN_ANOMALY   = 301.4675

EPHEMERIS_TYPE = 0
CLASSIFICATION_TYPE = U
NORAD_CAT_ID   = 67456
ELEMENT_SET_NO = 999
REV_AT_EPOCH   = 495
BSTAR          = -.23778222E-2
MEAN_MOTION_DOT = -.137711E-2
MEAN_MOTION_DDOT = 0

CCSDS_OMM_VERS = 2.0
CREATION_DATE  = 
ORIGINATOR     = 

OBJECT_NAME    = STARLINK-36529
OBJECT_ID      = 2026-008N
CENTER_NAME    = EARTH
REF_FRAME      = TEME
TIME_SYSTEM    = UTC
MEAN_ELEMENT_THEORY = SGP/SGP4

EPOCH          = 2026-02-07T14:00:01.999872
MEAN_MOTION    = 15.53950092
ECCENTRICITY   = .00010338
INCLINATION    = 43.0004
RA_OF_ASC_NODE = 16.6191
ARG_OF_PERICENTER = 250.4488
MEAN_ANOMALY   = 53.9988

EPHEMERIS_TYPE = 0
CLASSIFICATION_TYPE = U
NORAD_CAT_ID   = 67457
ELEMENT_SET_NO = 999
REV_AT_EPOCH   = 495
BSTAR          = -.34987642E-1
MEAN_MOTION_DOT = -.2064801E-1
MEAN_MOTION_DDOT = 0

CCSDS_OMM_VERS = 2.0
CREATION_DATE  = 
ORIGINATOR     = 

OBJECT_NAME    = STARLINK-36528
OBJECT_ID      = 2026-008P
CENTER_NAME    = EARTH
REF_FRAME      = TEME
TIME_SYSTEM    = UTC
MEAN_ELEMENT_THEORY = SGP/SGP4

EPOCH          = 2026-02-07T14:00:01.999872
MEAN_MOTION    = 15.60530934
ECCENTRICITY   = .00012949
INCLINATION    = 43.0009
RA_OF_ASC_NODE = 16.3780
ARG_OF_PERICENTER = 275.6949
MEAN_ANOMALY   = 125.9341

EPHEMERIS_TYPE = 0
CLASSIFICATION_TYPE = U
NORAD_CAT_ID   = 67458
ELEMENT_SET_NO = 999
REV_AT_EPOCH   = 497
BSTAR          = -.28180743E-1
MEAN_MOTION_DOT = -.2125926E-1
MEAN_MOTION_DDOT = 0

CCSDS_OMM_VERS = 2.0
CREATION_DATE  = 
ORIGINATOR     = 

OBJECT_NAME    = STARLINK-36546
OBJECT_ID      = 2026-008Q
CENTER_NAME    = EARTH
REF_FRAME      = TEME
TIME_SYSTEM    = UTC
MEAN_ELEMENT_THEORY = SGP/SGP4

EPOCH          = 2026-02-07T14:00:01.999872
MEAN_MOTION    = 15.54004802
ECCENTRICITY   = .00013142
INCLINATION    = 43.0005
RA_OF_ASC_NODE = 16.6023
ARG_OF_PERICENTER = 256.7545
MEAN_ANOMALY   = 54.3586

EPHEMERIS_TYPE = 0
CLASSIFICATION_TYPE = U
NORAD_CAT_ID   = 67459
ELEMENT_SET_NO = 999
REV_AT_EPOCH   = 495
BSTAR          = -.34968381E-1
MEAN_MOTION_DOT = -.2067674E-1
MEAN_MOTION_DDOT = 0

CCSDS_OMM_VERS = 2.0
CREATION_DATE  = 
ORIGINATOR     = 

OBJECT_NAME    = STARLINK-36523
OBJECT_ID      = 2026-008R
CENTER_NAME    = EARTH
REF_FRAME      = TEME
TIME_SYSTEM    = UTC
MEAN_ELEMENT_THEORY = SGP/SGP4

EPOCH          = 2026-02-07T14:00:01.999872
MEAN_MOTION    = 15.54657383
ECCENTRICITY   = .00014292
INCLINATION    = 43.0004
RA_OF_ASC_NODE = 16.5694
ARG_OF_PERICENTER = 262.7473
MEAN_ANOMALY   = 60.7400

EPHEMERIS_TYPE = 0
CLASSIFICATION_TYPE = U
NORAD_CAT_ID   = 67460
ELEMENT_SET_NO = 999
REV_AT_EPOCH   = 497
BSTAR          = -.34916826E-1
MEAN_MOTION_DOT = -.2109869E-1
MEAN_MOTION_DDOT = 0

CCSDS_OMM_VERS = 2.0
CREATION_DATE  = 
ORIGINATOR     = 

OBJECT_NAME    = STARLINK-36522
OBJECT_ID      = 2026-008S
CENTER_NAME    = EARTH
REF_FRAME      = TEME
TIME_SYSTEM    = UTC
MEAN_ELEMENT_THEORY = SGP/SGP4

EPOCH          = 2026-02-07T14:00:01.999872
MEAN_MOTION    = 15.50644807
ECCENTRICITY   = .00014179
INCLINATION    = 43.0004
RA_OF_ASC_NODE = 16.8583
ARG_OF_PERICENTER = 262.4943
MEAN_ANOMALY   = 304.0322

EPHEMERIS_TYPE = 0
CLASSIFICATION_TYPE = U
NORAD_CAT_ID   = 67461
ELEMENT_SET_NO = 999
REV_AT_EPOCH   = 495
BSTAR          = -.26043144E-2
MEAN_MOTION_DOT = -.150575E-2
MEAN_MOTION_DDOT = 0

CCSDS_OMM_VERS = 2.0
CREATION_DATE  = 
ORIGINATOR     = 

OBJECT_NAME    = STARLINK-36504
OBJECT_ID      = 2026-008T
CENTER_NAME    = EARTH
REF_FRAME      = TEME
TIME_SYSTEM    = UTC
MEAN_ELEMENT_THEORY = SGP/SGP4

EPOCH          = 2026-02-07T14:00:01.999872
MEAN_MOTION    = 15.58420362
ECCENTRICITY   = .00013273
INCLINATION    = 43.0006
RA_OF_ASC_NODE = 16.4233
ARG_OF_PERICENTER = 273.8457
MEAN_ANOMALY   = 109.1046

EPHEMERIS_TYPE = 0
CLASSIFICATION_TYPE = U
NORAD_CAT_ID   = 67462
ELEMENT_SET_NO = 999
REV_AT_EPOCH   = 497
BSTAR          = -.30594996E-1
MEAN_MOTION_DOT = -.2127652E-1
MEAN_MOTION_DDOT = 0

CCSDS_OMM_VERS = 2.0
CREATION_DATE  = 
ORIGINATOR     = 

OBJECT_NAME    = STARLINK-36505
OBJECT_ID      = 2026-008U
CENTER_NAME    = EARTH
REF_FRAME      = TEME
TIME_SYSTEM    = UTC
MEAN_ELEMENT_THEORY = SGP/SGP4

EPOCH          = 2026-02-07T14:00:01.999872
MEAN_MOTION    = 15.56290361
ECCENTRICITY   = .00012232
INCLINATION    = 43.0004
RA_OF_ASC_NODE = 16.4935
ARG_OF_PERICENTER = 267.5440
MEAN_ANOMALY   = 87.1952

EPHEMERIS_TYPE = 0
CLASSIFICATION_TYPE = U
NORAD_CAT_ID   = 67463
ELEMENT_SET_NO = 999
REV_AT_EPOCH   = 495
BSTAR          = -.33037834E-1
MEAN_MOTION_DOT = -.2120306E-1
MEAN_MOTION_DDOT = 0

CCSDS_OMM_VERS = 2.0
CREATION_DATE  = 
ORIGINATOR     = 

OBJECT_NAME    = STARLINK-36421
OBJECT_ID      = 2026-008V
CENTER_NAME    = EARTH
REF_FRAME      = TEME
TIME_SYSTEM    = UTC
MEAN_ELEMENT_THEORY = SGP/SGP4

EPOCH          = 2026-02-07T14:00:01.999872
MEAN_MOTION    = 15.50649589
ECCENTRICITY   = .00012445
INCLINATION    = 43.0003
RA_OF_ASC_NODE = 16.8513
ARG_OF_PERICENTER = 282.3509
MEAN_ANOMALY   = 287.4653

EPHEMERIS_TYPE = 0
CLASSIFICATION_TYPE = U
NORAD_CAT_ID   = 67464
ELEMENT_SET_NO = 999
REV_AT_EPOCH   = 495
BSTAR          = -.13046021E-2
MEAN_MOTION_DOT = -.76324E-3
MEAN_MOTION_DDOT = 0

CCSDS_OMM_VERS = 2.0
CREATION_DATE  = 
ORIGINATOR     = 

OBJECT_NAME    = STARLINK-36437
OBJECT_ID      = 2026-008W
CENTER_NAME    = EARTH
REF_FRAME      = TEME
TIME_SYSTEM    = UTC
MEAN_ELEMENT_THEORY = SGP/SGP4

EPOCH          = 2026-02-07T14:00:01.999872
MEAN_MOTION    = 15.56670549
ECCENTRICITY   = .00011366
INCLINATION    = 43.0006
RA_OF_ASC_NODE = 16.4688
ARG_OF_PERICENTER = 265.0114
MEAN_ANOMALY   = 99.3349

EPHEMERIS_TYPE = 0
CLASSIFICATION_TYPE = U
NORAD_CAT_ID   = 67465
ELEMENT_SET_NO = 999
REV_AT_EPOCH   = 495
BSTAR          = -.32398579E-1
MEAN_MOTION_DOT = -.2110396E-1
MEAN_MOTION_DDOT = 0

