STARLINK-36517          
1 67454U 26008K   26038.58335648 -.00096152  00000+0 -16521-2 0  9994
2 67454  43.0005  17.0346 0001254 272.2966 223.2123 15.50600275  4973
STARLINK-36516          
1 67455U 26008L   26038.58335648 -.00164674  00000+0 -28523-2 0  9995
2 67455  43.0002  16.8966 0001338 265.7887 285.5687 15.50660164  4955
STARLINK-36493          
1 67456U 26008M   26038.58335648 -.00137711  00000+0 -23778-2 0  9995
2 67456  43.0005  16.8642 0001184 262.8646 301.4675 15.50640794  4952
STARLINK-36529          
1 67457U 26008N   26038.58335648 -.02064801  00000+0 -34988-1 0  9991
2 67457  43.0004  16.6191 0001033 250.4488  53.9988 15.53950092  4953
STARLINK-36528          
1 67458U 26008P   26038.58335648 -.02125926  00000+0 -28181-1 0  9996
2 67458  43.0009  16.3780 0001294 275.6949 125.9341 15.60530934  4972
STARLINK-36546          
1 67459U 26008Q   26038.58335648 -.02067674  00000+0 -34968-1 0  9992
2 67459  43.0005  16.6023 0001314 256.7545  54.3586 15.54004802  4954
STARLINK-36523          
1 67460U 26008R   26038.58335648 -.02109869  00000+0 -34917-1 0  9991
2 67460  43.0004  16.5694 0001429 262.7473  60.7400 15.54657383  4978
STARLINK-36522          
1 67461U 26008S   26038.58335648 -.00150575  00000+0 -26043-2 0  9992
2 67461  43.0004  16.8583 0001417 262.4943 304.0322 15.50644807  4953
STARLINK-36504          
1 67462U 26008T   26038.58335648 -.02127652  00000+0 -30595-1 0  9991
2 67462  43.0006  16.4233 0001327 273.8457 109.1046 15.58420362  4975
STARLINK-36505          
1 67463U 26008U   26038.58335648 -.02120306  00000+0 -33038-1 0  9996
2 67463  43.0004  16.4935 0001223 267.5440  87.1952 15.56290361  4951
STARLINK-36421          
1 67464U 26008V   26038.58335648 -.00076324  00000+0 -13046-2 0  9993
2 67464  43.0003  16.8513 0001244 282.3509 287.4653 15.50649589  4958
STARLINK-36437          
1 67465U 26008W   26038.58335648 -.02110396  00000+0 -32399-1 0  9995
2 67465  43.0006  16.4688 0001136 265.0114  99.3349 15.56670549  4959
